[{"OBJECT_NAME":"STARLINK-5153","OBJECT_ID":"2022-136AP","EPOCH":"2026-03-09T21:29:29.574816","MEAN_MOTION":15.08832854,"ECCENTRICITY":0.00013745,"INCLINATION":53.2191,"RA_OF_ASC_NODE":333.301,"ARG_OF_PERICENTER":105.0208,"MEAN_ANOMALY":255.0936,"EPHEMERIS_TYPE":0,"CLASSIFICATION_TYPE":"U","NORAD_CAT_ID":54088,"ELEMENT_SET_NO":999,"REV_AT_EPOCH":18701,"BSTAR":4.1738783e-5,"MEAN_MOTION_DOT":3.76e-6,"MEAN_MOTION_DDOT":0},{"OBJECT_NAME":"COSMOS 252 DEB","OBJECT_ID":"1968-097H","EPOCH":"2026-03-09T15:55:45.465888","MEAN_MOTION":13.08433626,"ECCENTRICITY":0.09089174,"INCLINATION":62.3171,"RA_OF_ASC_NODE":165.0158,"ARG_OF_PERICENTER":153.052,"MEAN_ANOMALY":212.0845,"EPHEMERIS_TYPE":0,"CLASSIFICATION_TYPE":"U","NORAD_CAT_ID":3555,"ELEMENT_SET_NO":999,"REV_AT_EPOCH":72378,"BSTAR":0.0001690308,"MEAN_MOTION_DOT":3.69e-6,"MEAN_MOTION_DDOT":0}]
